FLOCK 4Q-11             
1 58273U 23174T   26064.22919205  .00031292  00000+0  66602-3 0  9999
2 58273  97.3909 150.7597 0007621 170.1349 190.0051 15.44874366129511
FLOCK 4Q-36             
1 58274U 23174U   26064.22259753  .00035691  00000+0  61664-3 0  9995
2 58274  97.3896 153.3731 0007688 160.0606 200.0948 15.50873250129686
FLOCK 4Q-12             
1 58275U 23174V   26064.23262605  .00084538  00000+0  14334-2 0  9992
2 58275  97.3890 153.2665 0005977 167.6587 192.4813 15.51199804129701
FLOCK 4Q-28             
1 58280U 23174AA  26064.17339448  .00039314  00000+0  73234-3 0  9998
2 58280  97.3915 152.4474 0007196 166.8181 193.3259 15.48712324129618
FLOCK 4Q-27             
1 58282U 23174AC  26064.23381007  .00040377  00000+0  75242-3 0  9997
2 58282  97.3859 152.0521 0006707 162.2699 197.8788 15.48699488129630
FLOCK 4Q-26             
1 58284U 23174AE  26064.21339154  .00039953  00000+0  69894-3 0  9997
2 58284  97.3908 153.4504 0007345 164.3676 195.7804 15.50499686129682
FLOCK 4Q-31             
1 58285U 23174AF  26064.17867587  .00043713  00000+0  77746-3 0  9993
2 58285  97.3955 153.0575 0007782 166.5095 193.6365 15.50007501129638
FLOCK 4Q-30             
1 58286U 23174AG  26064.23183452  .00044760  00000+0  78960-3 0  9995
2 58286  97.3954 153.2923 0007529 163.1697 196.9806 15.50236728129650
PELICAN-1               
1 58296U 23174AS  26064.22038230  .00086541  00000+0  93305-3 0  9991
2 58296  97.3829 158.7414 0008834 215.1143 144.9535 15.63352596129862
FLOCK 4Q-25             
1 58303U 23174AZ  26064.22264136  .00054327  00000+0  77663-3 0  9992
2 58303  97.3872 154.1320 0005367 149.5461 210.6107 15.56053529129778
FLOCK 4Q-29             
1 58304U 23174BA  26064.25791400  .00036266  00000+0  66482-3 0  9994
2 58304  97.3942 152.9204 0007876 154.9188 205.2447 15.49182687129639
FLOCK 4Q-22             
1 58306U 23174BC  26064.22566535  .00048307  00000+0  80703-3 0  9993
2 58306  97.3857 153.0570 0006633 158.4445 201.7087 15.51764266129700
FLOCK 4Q-23             
1 58307U 23174BD  26064.19160165  .00051438  00000+0  76826-3 0  9999
2 58307  97.3963 154.5565 0006959 154.7612 205.3984 15.54858267129732
FLOCK 4Q-33             
1 58308U 23174BE  26064.20936286  .00040552  00000+0  70067-3 0  9993
2 58308  97.3882 152.9799 0007570 148.2370 211.9340 15.50846048129686
FLOCK 4Q-35             
1 58309U 23174BF  26064.19325720  .00040917  00000+0  73257-3 0  9996
2 58309  97.3905 153.1350 0008186 161.4852 198.6699 15.49829086129662
FLOCK 4Q-34             
1 58316U 23174BN  26064.20326694  .00056817  00000+0  84167-3 0  9995
2 58316  97.3866 153.9723 0006784 156.0105 204.1466 15.55060850129748
